{
  "type": "FeatureCollection",
  "features": [
    {
      "type": "Feature",
      "properties": {
        "norad_id": 24946,
        "name": "IRIDIUM 33",
        "group": "iridium-33-debris",
        "lat": -48.15706351051648,
        "lon": 59.245167964614964,
        "alt_km": 787.0118609825295,
        "timestamp": "2025-12-24T11:33:00.402334+00:00",
        "meta_object_name": "IRIDIUM 33",
        "meta_object_id": "1997-051C",
        "meta_epoch": "2025-12-24T03:24:27.650016",
        "meta_mean_motion": 14.35044893,
        "meta_eccentricity": 0.0008384,
        "meta_inclination": 86.3858,
        "meta_ra_of_asc_node": 63.4351,
        "meta_arg_of_pericenter": 163.2863,
        "meta_mean_anomaly": 196.8611,
        "meta_ephemeris_type": 0,
        "meta_classification_type": "U",
        "meta_norad_cat_id": 24946,
        "meta_element_set_no": 999,
        "meta_rev_at_epoch": 47998,
        "meta_bstar": 0.00010793,
        "meta_mean_motion_dot": 3.27e-06,
        "meta_mean_motion_ddot": 0,
        "tle_line1": "1 24946U 97051C   25358.14198669  .00000327  00000+0  10793-3 0  9998",
        "tle_line2": "2 24946  86.3858  63.4351 0008384 163.2863 196.8611 14.35044893479989"
      },
      "geometry": {
        "type": "Point",
        "coordinates": [
          59.245167964614964,
          -48.15706351051648
        ]
      }
    },
    {
      "type": "Feature",
      "properties": {
        "norad_id": 33773,
        "name": "IRIDIUM 33 DEB",
        "group": "iridium-33-debris",
        "lat": -75.69931128084977,
        "lon": -110.08716231415195,
        "alt_km": 762.7020042724389,
        "timestamp": "2025-12-24T11:33:00.402381+00:00",
        "meta_object_name": "IRIDIUM 33 DEB",
        "meta_object_id": "1997-051L",
        "meta_epoch": "2025-12-24T03:42:43.819776",
        "meta_mean_motion": 14.43280063,
        "meta_eccentricity": 0.0013256,
        "meta_inclination": 86.3998,
        "meta_ra_of_asc_node": 55.752,
        "meta_arg_of_pericenter": 113.5751,
        "meta_mean_anomaly": 246.6843,
        "meta_ephemeris_type": 0,
        "meta_classification_type": "U",
        "meta_norad_cat_id": 33773,
        "meta_element_set_no": 999,
        "meta_rev_at_epoch": 88512,
        "meta_bstar": 0.00028415,
        "meta_mean_motion_dot": 9.77e-06,
        "meta_mean_motion_ddot": 0,
        "tle_line1": "1 33773U 97051L   25358.15467384  .00000977  00000+0  28415-3 0  9991",
        "tle_line2": "2 33773  86.3998  55.7520 0013256 113.5751 246.6843 14.43280063885120"
      },
      "geometry": {
        "type": "Point",
        "coordinates": [
          -110.08716231415195,
          -75.69931128084977
        ]
      }
    },
    {
      "type": "Feature",
      "properties": {
        "norad_id": 33775,
        "name": "IRIDIUM 33 DEB",
        "group": "iridium-33-debris",
        "lat": -83.13421871661225,
        "lon": -103.56796922920779,
        "alt_km": 769.8909755762143,
        "timestamp": "2025-12-24T11:33:00.402398+00:00",
        "meta_object_name": "IRIDIUM 33 DEB",
        "meta_object_id": "1997-051N",
        "meta_epoch": "2025-12-23T13:17:41.922816",
        "meta_mean_motion": 14.41490246,
        "meta_eccentricity": 0.00152222,
        "meta_inclination": 86.3625,
        "meta_ra_of_asc_node": 44.9362,
        "meta_arg_of_pericenter": 122.4462,
        "meta_mean_anomaly": 12.5884,
        "meta_ephemeris_type": 0,
        "meta_classification_type": "U",
        "meta_norad_cat_id": 33775,
        "meta_element_set_no": 999,
        "meta_rev_at_epoch": 88296,
        "meta_bstar": 0.00028606428,
        "meta_mean_motion_dot": 9.49e-06,
        "meta_mean_motion_ddot": 0,
        "tle_line1": "1 33775U 97051N   25357.55395744  .00000949  00000+0  28606-3 0  9997",
        "tle_line2": "2 33775  86.3625  44.9362 0015222 122.4462  12.5884 14.41490246882964"
      },
      "geometry": {
        "type": "Point",
        "coordinates": [
          -103.56796922920779,
          -83.13421871661225
        ]
      }
    },
    {
      "type": "Feature",
      "properties": {
        "norad_id": 33776,
        "name": "IRIDIUM 33 DEB",
        "group": "iridium-33-debris",
        "lat": -3.0175203404996225,
        "lon": 75.65491020662706,
        "alt_km": 777.8902268951379,
        "timestamp": "2025-12-24T11:33:00.402413+00:00",
        "meta_object_name": "IRIDIUM 33 DEB",
        "meta_object_id": "1997-051P",
        "meta_epoch": "2025-12-23T23:00:23.364864",
        "meta_mean_motion": 14.38253879,
        "meta_eccentricity": 0.0015616,
        "meta_inclination": 86.403,
        "meta_ra_of_asc_node": 76.0644,
        "meta_arg_of_pericenter": 154.6718,
        "meta_mean_anomaly": 18.0774,
        "meta_ephemeris_type": 0,
        "meta_classification_type": "U",
        "meta_norad_cat_id": 33776,
        "meta_element_set_no": 999,
        "meta_rev_at_epoch": 88243,
        "meta_bstar": 0.00026165,
        "meta_mean_motion_dot": 8.16e-06,
        "meta_mean_motion_ddot": 0,
        "tle_line1": "1 33776U 97051P   25357.95860376  .00000816  00000+0  26165-3 0  9991",
        "tle_line2": "2 33776  86.4030  76.0644 0015616 154.6718  18.0774 14.38253879882439"
      },
      "geometry": {
        "type": "Point",
        "coordinates": [
          75.65491020662706,
          -3.0175203404996225
        ]
      }
    },
    {
      "type": "Feature",
      "properties": {
        "norad_id": 33777,
        "name": "IRIDIUM 33 DEB",
        "group": "iridium-33-debris",
        "lat": 20.25290162915307,
        "lon": -151.24469351267592,
        "alt_km": 703.8801975024608,
        "timestamp": "2025-12-24T11:33:00.402425+00:00",
        "meta_object_name": "IRIDIUM 33 DEB",
        "meta_object_id": "1997-051Q",
        "meta_epoch": "2025-12-24T02:34:12.487008",
        "meta_mean_motion": 14.55688811,
        "meta_eccentricity": 0.0006197,
        "meta_inclination": 86.3772,
        "meta_ra_of_asc_node": 30.2576,
        "meta_arg_of_pericenter": 200.9801,
        "meta_mean_anomaly": 159.1154,
        "meta_ephemeris_type": 0,
        "meta_classification_type": "U",
        "meta_norad_cat_id": 33777,
        "meta_element_set_no": 999,
        "meta_rev_at_epoch": 88699,
        "meta_bstar": 0.0008346,
        "meta_mean_motion_dot": 3.667e-05,
        "meta_mean_motion_ddot": 0,
        "tle_line1": "1 33777U 97051Q   25358.10708897  .00003667  00000+0  83460-3 0  9997",
        "tle_line2": "2 33777  86.3772  30.2576 0006197 200.9801 159.1154 14.55688811886991"
      },
      "geometry": {
        "type": "Point",
        "coordinates": [
          -151.24469351267592,
          20.25290162915307
        ]
      }
    },
    {
      "type": "Feature",
      "properties": {
        "norad_id": 33850,
        "name": "IRIDIUM 33 DEB",
        "group": "iridium-33-debris",
        "lat": -84.79200795123734,
        "lon": -19.46594970868069,
        "alt_km": 766.7597479236238,
        "timestamp": "2025-12-24T11:33:00.402438+00:00",
        "meta_object_name": "IRIDIUM 33 DEB",
        "meta_object_id": "1997-051T",
        "meta_epoch": "2025-12-24T00:35:08.831328",
        "meta_mean_motion": 14.42173299,
        "meta_eccentricity": 0.0013235,
        "meta_inclination": 86.3407,
        "meta_ra_of_asc_node": 25.3267,
        "meta_arg_of_pericenter": 127.4585,
        "meta_mean_anomaly": 295.8147,
        "meta_ephemeris_type": 0,
        "meta_classification_type": "U",
        "meta_norad_cat_id": 33850,
        "meta_element_set_no": 999,
        "meta_rev_at_epoch": 88315,
        "meta_bstar": 0.00038669,
        "meta_mean_motion_dot": 1.293e-05,
        "meta_mean_motion_ddot": 0,
        "tle_line1": "1 33850U 97051T   25358.02440777  .00001293  00000+0  38669-3 0  9994",
        "tle_line2": "2 33850  86.3407  25.3267 0013235 127.4585 295.8147 14.42173299883153"
      },
      "geometry": {
        "type": "Point",
        "coordinates": [
          -19.46594970868069,
          -84.79200795123734
        ]
      }
    },
    {
      "type": "Feature",
      "properties": {
        "norad_id": 33853,
        "name": "IRIDIUM 33 DEB",
        "group": "iridium-33-debris",
        "lat": -77.97676769744385,
        "lon": -34.51736371855527,
        "alt_km": 879.5523595810773,
        "timestamp": "2025-12-24T11:33:00.402450+00:00",
        "meta_object_name": "IRIDIUM 33 DEB",
        "meta_object_id": "1997-051W",
        "meta_epoch": "2025-12-24T00:14:15.619200",
        "meta_mean_motion": 13.99116212,
        "meta_eccentricity": 0.0207614,
        "meta_inclination": 86.0001,
        "meta_ra_of_asc_node": 344.8683,
        "meta_arg_of_pericenter": 201.0614,
        "meta_mean_anomaly": 225.2938,
        "meta_ephemeris_type": 0,
        "meta_classification_type": "U",
        "meta_norad_cat_id": 33853,
        "meta_element_set_no": 999,
        "meta_rev_at_epoch": 85503,
        "meta_bstar": 0.0011602,
        "meta_mean_motion_dot": 2.038e-05,
        "meta_mean_motion_ddot": 0,
        "tle_line1": "1 33853U 97051W   25358.00990300  .00002038  00000+0  11602-2 0  9992",
        "tle_line2": "2 33853  86.0001 344.8683 0207614 201.0614 225.2938 13.99116212855036"
      },
      "geometry": {
        "type": "Point",
        "coordinates": [
          -34.51736371855527,
          -77.97676769744385
        ]
      }
    }
  ]
}